HIMAWARI-8              
1 40267U 14060A   24272.84663841 -.00000288  00000+0  00000+0 0  9994
2 40267   0.0269 151.5595 0000715  40.3444 261.6653  1.00271685 36582
